GLOBALSTAR M094         
1 39074U 13005C   24214.90674420 -.00000088  00000+0  89651-4 0  9996
2 39074  51.9962  74.2316 0000574  50.8608 309.2309 12.62266360532070
GLOBALSTAR M096         
1 39075U 13005D   24215.07837947 -.00000099  00000+0  28108-4 0  9993
2 39075  52.0069 121.9755 0000380  12.5690 347.5186 12.62268076531342
GLOBALSTAR M078         
1 39076U 13005E   24214.97282672 -.00000099  00000+0  24745-4 0  9994
2 39076  51.9846 207.2405 0000930 181.2311 178.8553 12.62273535529604
GLOBALSTAR M095         
1 39077U 13005F   24215.23658581 -.00000100  00000+0  18878-4 0  9994
2 39077  51.9774 203.7909 0000532 228.9359 131.1461 12.62262834529851
GLOBALSTAR M087         
1 52888U 22064A   24215.21270204 -.00000091  00000+0  70423-4 0  9997
2 52888  51.9766  47.8914 0010061 118.5229 241.6685 13.37579950103685
